SL-3 R/B                
1 13403U 82079B   26025.87160043  .00008134  00000+0  33014-3 0  9990
2 13403  81.1447 243.6187 0024536 313.0416  46.8762 15.24186488371176
SL-14 R/B               
1 13553U 82092B   26025.84263818  .00000982  00000+0  10749-3 0  9995
2 13553  82.5684 181.4635 0021857  83.8947  12.6978 14.86612318322563
SL-3 R/B                
1 13819U 83010B   26025.51344667  .00018887  00000+0  39974-3 0  9991
2 13819  81.1021  55.1277 0016788 192.3167 167.7669 15.44836957351275
SL-3 R/B                
1 14208U 83075B   26025.80734977  .00017393  00000+0  47436-3 0  9997
2 14208  97.6129  28.8091 0023141  28.0783 332.1703 15.37247706323568
COSMOS 1536             
1 14699U 84013A   26025.76571342  .00010164  00000+0  42691-3 0  9991
2 14699  82.5466 150.4841 0015691  75.5943 284.7034 15.23200057266085
SL-14 R/B               
1 14820U 84027B   26025.73122712  .00000805  00000+0  89256-4 0  9992
2 14820  82.5422 285.3076 0019397 113.5741 246.7515 14.85931156241259
SL-8 R/B                
1 15483U 85006B   26025.85848354  .00000545  00000+0  18945-3 0  9993
2 15483  74.0474 339.9575 0019764 265.2802 115.9701 14.37757761147871
SL-12 R/B(2)            
1 15772U 85042D   26025.70293772  .00000190  00000+0  10682-3 0  9992
2 15772  71.1072 178.5432 0035813 196.0833 174.9104 14.21967794108287
SL-14 R/B               
1 15945U 85069B   26025.52707176  .00000787  00000+0  86241-4 0  9998
2 15945  82.5245  65.5316 0018202 340.0448  20.0054 14.86380136166424
SL-16 R/B               
1 16182U 85097B   26025.83242867  .00000043  00000+0  45327-4 0  9993
2 16182  71.0000 230.7771 0009018 310.2536  61.2955 14.16590970 81169
SL-14 R/B               
1 16496U 86006B   26025.71729052  .00001311  00000+0  13654-3 0  9991
2 16496  82.5286 300.1783 0078006  55.7939 305.0638 14.86746624142820
COSMOS 1743             
1 16719U 86034A   26025.70944592  .00044960  00000+0  65947-3 0  9996
2 16719  82.5348 118.8213 0005432  93.2735 266.9141 15.55324400173563
